COSMOS 2413 (712)       
1 28509U 04053B   16155.48691366  .00000093  00000-0  00000+0 0  9998
2 28509  63.1281 190.5897 0005322 179.0651 244.3436  2.13101819 89017
COSMOS 2419 (714)       
1 28915U 05050A   16155.61916243 -.00000041  00000-0  00000+0 0  9990
2 28915  65.3160  78.6225 0017093 350.2520 178.3404  2.13110700 81264
COSMOS 2425 (716)       
1 29670U 06062A   16155.58381019 -.00000044  00000-0  10000-3 0  9994
2 29670  65.6399 317.6111 0021180 351.4439 207.9874  2.13104999 73460
COSMOS 2426 (717)       
1 29671U 06062B   16156.45576730 -.00000049  00000-0  10000-3 0  9993
2 29671  65.6565 317.6632 0017471 158.0341 211.3425  2.13102978 73494
COSMOS 2424 (715)       
1 29672U 06062C   16155.52721986 -.00000044  00000-0  10000-3 0  9991
2 29672  65.6419 317.6232 0016926 156.6425  36.7220  2.13102311 73460
COSMOS 2433 (720)       
1 32275U 07052A   16156.17783660 -.00000040  00000-0  10000-3 0  9999
2 32275  65.3320  78.3738 0003569 292.6085 194.5611  2.13104858 66990
COSMOS 2432 (719)       
1 32276U 07052B   16156.13431736 -.00000040  00000-0  10000-3 0  9990
2 32276  65.3440  78.4409 0013504 336.8882  70.7329  2.13104337 66999
COSMOS 2434 (721)       
1 32393U 07065A   16155.62472260 -.00000046  00000-0  00000+0 0  9995
2 32393  65.2581 316.9390 0005941 100.4590 214.4968  2.13102899 65682
COSMOS 2436 (723)       
1 32395U 07065C   16156.02377381 -.00000048  00000-0  10000-3 0  9997
2 32395  65.2708 316.9677 0017092   1.0527 352.0597  2.13102956 65624
COSMOS 2443 (725)       
1 33379U 08046B   16156.17280627 -.00000041  00000-0  10000-3 0  9995
2 33379  65.2608  77.7920 0016125 188.0103 200.5528  2.13101468 59868
COSMOS 2456 (730)       
1 36111U 09070A   16155.57789649  .00000089  00000-0  00000-0 0  9998
2 36111  64.1812 196.5312 0005780 298.9400 149.5780  2.13103025 50359
COSMOS 2457 (733)       
1 36112U 09070B   16155.77105557  .00000088  00000-0  00000+0 0  9999
2 36112  64.1634 196.4519 0006769 183.4111 183.6072  2.13101646 50366
COSMOS 2458 (734)       
1 36113U 09070C   16155.76594260  .00000088  00000-0  10000-3 0  9997
2 36113  64.1688 196.4573 0002041 297.3015 113.3077  2.13102167 50367
COSMOS 2459 (731)       
1 36400U 10007A   16156.46512478 -.00000040  00000-0  10000-3 0  9996
2 36400  65.2400  77.5166 0029897 352.0916 220.9348  2.13102457 48729
COSMOS 2461 (735)       
1 36401U 10007B   16155.61654785 -.00000042  00000-0  10000-3 0  9993
2 36401  65.2330  77.5271 0006287  54.1879 138.4022  2.13102566 48706
COSMOS 2460 (732)       
1 36402U 10007C   16156.01260693 -.00000041  00000-0  10000-3 0  9999
2 36402  65.2233  77.4906 0001811 336.1705 202.1586  2.13101994 48711
COSMOS 2466 (738)       
1 37137U 10041A   16156.14025167 -.00000050  00000-0  10000-3 0  9992
2 37137  64.8405 317.0272 0019242 152.6254  64.8059  2.13111038 44791
COSMOS 2465 (737)       
1 37138U 10041B   16156.11363343 -.00000050  00000-0  00000+0 0  9996
2 37138  64.8584 317.1020 0035261 167.4824 207.7229  2.13093957 44794
COSMOS 2464 (736)       
1 37139U 10041C   16156.14025167 -.00000050  00000-0  00000+0 0  9999
2 37139  64.8649 317.0966 0023366  17.4378 200.7071  2.13102663 44799
COSMOS 2471 (701K)      
1 37372U 11009A   16156.13147708 -.00000041  00000-0  00000+0 0  9998
2 37372  65.2210  77.4356 0007658 244.8011 157.2715  2.13102857 40997
COSMOS 2474 (742)       
1 37829U 11055A   16155.76491576  .00000088  00000-0  00000+0 0  9999
2 37829  64.5058 196.9319 0010070 253.4172 200.0530  2.13102056 36356
COSMOS 2476 (744)       
1 37867U 11064A   16156.13586358  .00000085  00000-0  00000+0 0  9993
2 37867  64.4858 197.0007 0018989 247.9770 175.9057  2.13102164 35713
COSMOS 2477 (745)       
1 37868U 11064B   16155.56432519  .00000089  00000-0  00000-0 0  9994
2 37868  64.4940 197.0604 0017108 249.6102 275.1146  2.13101963 35650
COSMOS 2475 (743)       
1 37869U 11064C   16155.61721925  .00000089  00000-0  00000+0 0  9992
2 37869  64.5014 197.0462 0022346 274.0362 247.3858  2.13102129 35663
COSMOS 2478 (746)       
1 37938U 11071A   16156.04131925 -.00000041  00000-0  00000+0 0  9999
2 37938  65.2488  77.6611 0013828 245.5423 200.9284  2.13088536 35289
COSMOS 2485 (747)       
1 39155U 13019A   16156.45466935  .00000083  00000-0  00000+0 0  9998
2 39155  64.6551 196.9374 0019189 242.9400 110.6549  2.13102176 24184
COSMOS 2492 (754)       
1 39620U 14012A   16156.35756065 -.00000041  00000-0  10000-3 0  9994
2 39620  65.1124  77.4686 0017087 333.2998 338.9812  2.13103591 17130
COSMOS 2500 (755)       
1 40001U 14032A   16155.45737059 -.00000042  00000-0  00000+0 0  9999
2 40001  65.0519  77.5247 0005073 222.0529 343.3968  2.13103118 15330
COSMOS 2501 (702K)      
1 40315U 14075A   16156.45365372 -.00000052  00000-0  00000+0 0  9991
2 40315  64.6299 318.5459 0016181 232.4284 178.6065  2.13101636 11769
COSMOS 2514 (751)       
1 41330U 16008A   16156.50121390 -.00000040  00000-0  00000+0 0  9990
2 41330  64.8533  77.7280 0008490 227.3626 237.8896  2.13103608  2528
